OBJECT_NAME,OBJECT_ID,EPOCH,MEAN_MOTION,ECCENTRICITY,INCLINATION,RA_OF_ASC_NODE,ARG_OF_PERICENTER,MEAN_ANOMALY,EPHEMERIS_TYPE,CLASSIFICATION_TYPE,NORAD_CAT_ID,ELEMENT_SET_NO,REV_AT_EPOCH,BSTAR,MEAN_MOTION_DOT,MEAN_MOTION_DDOT
INTELSAT 21 (IS-21),2012-045A,2026-06-17T06:01:21.336960,1.00270139,.00013622,0.0150,346.4493,119.4778,191.9146,0,U,38749,999,5052,0,-.289E-5,0
INTELSAT 23 (IS-23),2012-057A,2026-06-17T05:48:28.127808,1.00267858,.00001769,0.0155,308.9699,53.3838,297.2665,0,U,38867,999,4995,0,-.289E-5,0
FM-6,2013-058A,2026-06-16T17:35:36.695040,1.00292192,.00032601,0.0298,41.7756,152.1782,218.6366,0,U,39360,999,4606,0,0,0
INTELSAT 30 (IS-30),2014-062A,2026-06-17T07:46:38.554176,1.00270102,.00012186,0.0268,50.1227,328.9119,268.1517,0,U,40271,999,679,0,-.155E-5,0
DIRECTV 14,2014-078B,2026-06-17T06:32:56.740416,1.00271220,.00003214,0.0129,24.2371,314.8750,285.4151,0,U,40333,999,4204,0,-.129E-5,0
DIRECTV 15,2015-026A,2026-06-17T07:53:03.162912,1.00267948,.00004284,0.0158,26.3598,291.9387,322.6677,0,U,40663,999,4046,0,-.106E-5,0
SKY MEXICO-1,2015-026B,2026-06-17T09:44:38.705856,1.00270113,.00020586,0.0167,15.9667,91.4728,225.5763,0,U,40664,999,4045,0,-.239E-5,0
INTELSAT 34 (IS-34),2015-039A,2026-06-17T05:58:43.999104,1.00269802,.00004959,0.0104,347.3582,340.7484,331.5954,0,U,40874,999,3963,0,-.289E-5,0
INTELSAT 31 (IS-31),2016-035A,2026-06-17T07:46:38.554176,1.00269660,.00010912,0.0151,275.6006,339.5655,32.0181,0,U,41581,999,3668,0,-.155E-5,0
INTELSAT 36 (IS-36),2016-053A,2026-06-16T22:40:02.265024,1.00270845,.00021817,0.0113,10.1532,322.5607,340.9958,0,U,41747,999,3595,0,-.27E-6,0
INTELSAT 32E (IS-32E),2017-007B,2026-06-17T07:32:22.952256,1.00269053,.00006711,0.0167,353.5819,313.2122,28.6877,0,U,41945,999,3422,0,-.273E-5,0
INTELSAT 35E (IS-35E),2017-041A,2026-06-16T17:59:04.444800,1.00268682,.00015983,0.0182,331.6195,107.3554,61.2978,0,U,42818,999,3281,0,-.241E-5,0
INTELSAT 37E (IS-37E),2017-059A,2026-06-16T18:03:41.501952,1.00271710,.00023684,0.0164,21.9885,84.8898,51.0770,0,U,42950,999,3206,0,-.143E-5,0
AZERSPACE 2 (IS-38),2018-074A,2026-06-16T18:21:44.924256,1.00270536,.00012305,0.0176,5.0049,81.7615,138.8031,0,U,43632,999,2844,0,.134E-5,0
HORIZONS-3E,2018-074B,2026-06-17T10:04:38.591040,1.00271561,.00009259,0.0179,171.3721,105.3335,309.1289,0,U,43633,999,2834,0,-.35E-6,0
AT&T T-16,2019-034A,2026-06-16T15:57:24.126048,1.00268512,.00008037,0.0218,61.0762,214.9067,127.4309,0,U,44333,999,2562,0,-.117E-5,0
INTELSAT 39 (IS-39),2019-049B,2026-06-16T22:32:04.249248,1.00269114,.00009447,0.0008,356.4174,318.0874,350.6593,0,U,44476,999,2512,0,.31E-6,0
GALAXY 30 (G-30),2020-056C,2026-06-17T11:14:31.585632,1.00271406,.00021249,0.0129,49.2349,37.4194,222.6923,0,U,46114,999,2129,0,.32E-6,0
GALAXY 33 (G-33),2022-128A,2026-06-17T11:11:23.887680,1.00272194,.00016363,0.0131,31.1837,57.2670,212.1255,0,U,54026,999,1374,0,.74E-6,0
GALAXY 34 (G-34),2022-128B,2026-06-17T11:26:38.773824,1.00274848,.00014275,0.0155,11.8592,84.1068,212.4267,0,U,54027,999,1391,0,.54E-6,0
GALAXY 31 (G-31),2022-153A,2026-06-17T07:34:15.367296,1.00271162,.00010401,0.0133,48.6021,27.9435,181.5754,0,U,54243,999,713,0,.9E-7,0
GALAXY 32 (G-32),2022-153B,2026-06-14T22:56:24.476640,1.00491998,.0015287,0.0165,349.6788,254.3091,272.5395,0,U,54244,999,1312,0,-.197E-5,0
GALAXY 35 (G-35),2022-170A,2026-06-17T07:53:43.788192,1.00270024,.00018651,0.0182,49.6252,37.6461,203.6255,0,U,54741,999,1289,0,-.166E-5,0
GALAXY 36 (G-36),2022-170B,2026-06-16T14:17:58.328736,1.00270255,.00025024,0.0179,256.2701,187.9042,306.1810,0,U,54742,999,1276,0,-.187E-5,0
GALAXY 37 (G-37),2023-112A,2026-06-17T11:13:43.222368,1.00272176,.0001745,0.0171,327.7176,114.3436,225.0902,0,U,57493,999,1054,0,.43E-6,0
